NORAD_CAT_ID,OBJECT_NAME,OBJECT_TYPE,EPOCH,MEAN_MOTION,ECCENTRICITY,INCLINATION,RA_OF_ASC_NODE,ARG_OF_PERICENTER,MEAN_ANOMALY,BSTAR,MEAN_MOTION_DOT,MEAN_MOTION_DDOT,TLE_LINE0,TLE_LINE1,TLE_LINE2,SEMIMAJOR_AXIS,PERIOD,APOGEE,PERIGEE,DECAYED
53402.0,STARLINK-4499,PAYLOAD,2024-02-24 17:20:07,15.08833969,0.0001357,53.2161,223.9195,86.5825,273.5322,1.7704e-05,-6e-08,0.0,0 STARLINK-4499,1 53402U 22097Q   24055.72230766 -.00000006  00000-0  17704-4 0  9993,2 53402  53.2161 223.9195 0001357  86.5825 273.5322 15.08833969 86207,6917.899,95.438,540.703,538.825,0.0
53402.0,STARLINK-4499,PAYLOAD,2024-02-25 10:49:21,15.08843319,0.0001421,53.2157,220.6482,86.4531,273.6623,6.5238e-05,7.51e-06,0.0,0 STARLINK-4499,1 53402U 22097Q   24056.45094042  .00000751  00000-0  65238-4 0  9990,2 53402  53.2157 220.6482 0001421  86.4531 273.6623 15.08843319 85822,6917.87,95.437,540.718,538.752,0.0
53402.0,STARLINK-4499,PAYLOAD,2024-02-25 17:10:53,15.08849414,0.0001332,53.2145,219.4584,88.0969,272.0176,0.00011719,1.578e-05,0.0,0 STARLINK-4499,1 53402U 22097Q   24056.71589386  .00001578  00000-0  11719-3 0  9991,2 53402  53.2145 219.4584 0001332  88.0969 272.0176 15.08849414 85864,6917.852,95.437,540.638,538.795,0.0
53402.0,STARLINK-4499,PAYLOAD,2024-02-26 13:50:54,15.08832108,0.0001296,53.2175,215.5917,106.9981,253.1154,0.00014728,2.056e-05,0.0,0 STARLINK-4499,1 53402U 22097Q   24057.57702306  .00002056  00000-0  14728-3 0  9990,2 53402  53.2175 215.5917 0001296 106.9981 253.1154 15.08832108 86484,6917.905,95.438,540.666,538.873,0.0
53402.0,STARLINK-4499,PAYLOAD,2024-02-26 17:01:40,15.08840101,0.000152,53.2172,214.9978,100.7416,259.3747,3.6058e-05,2.86e-06,0.0,0 STARLINK-4499,1 53402U 22097Q   24057.70950213  .00000286  00000-0  36058-4 0  9991,2 53402  53.2172 214.9978 0001520 100.7416 259.3747 15.08840101 86013,6917.88,95.438,540.797,538.694,0.0
53402.0,STARLINK-4499,PAYLOAD,2024-02-27 13:41:42,15.08831999,0.0001372,53.2179,211.132,103.1813,256.9332,6.9057e-06,-1.78e-06,0.0,0 STARLINK-4499,1 53402U 22097Q   24058.57062896 -.00000178  00000-0  69057-5 0  9995,2 53402  53.2179 211.1320 0001372 103.1813 256.9332 15.08831999 86639,6917.905,95.438,540.719,538.821,0.0
53402.0,STARLINK-4499,PAYLOAD,2024-02-27 16:52:28,15.08834875,0.0001309,53.2181,210.5393,86.3389,273.7753,1.9835e-05,2.8e-07,0.0,0 STARLINK-4499,1 53402U 22097Q   24058.70310781  .00000028  00000-0  19835-4 0  9990,2 53402  53.2181 210.5393 0001309  86.3389 273.7753 15.08834875 86163,6917.896,95.438,540.667,538.856,0.0
53402.0,STARLINK-4499,PAYLOAD,2024-02-28 13:32:29,15.08820193,0.0001294,53.218,206.676,86.7402,273.3738,0.00018242,2.615e-05,0.0,0 STARLINK-4499,1 53402U 22097Q   24059.56423534  .00002615  00000-0  18242-3 0  9990,2 53402  53.2180 206.6760 0001294  86.7402 273.3738 15.08820193 86290,6917.941,95.439,540.701,538.911,0.0
53402.0,STARLINK-4499,PAYLOAD,2024-02-28 16:43:15,15.08832302,0.000116,53.2163,206.0787,87.0809,273.0316,9.5475e-05,1.232e-05,0.0,0 STARLINK-4499,1 53402U 22097Q   24059.69671010  .00001232  00000-0  95475-4 0  9996,2 53402  53.2163 206.0787 0001160  87.0809 273.0316 15.08832302 86318,6917.904,95.438,540.571,538.966,0.0
53402.0,STARLINK-4499,PAYLOAD,2024-02-29 14:58:39,15.088407,0.0001187,53.2164,201.9153,85.9066,274.2062,0.00010853,1.44e-05,0.0,0 STARLINK-4499,1 53402U 22097Q   24060.62406681  .00001440  00000-0  10853-3 0  9998,2 53402  53.2164 201.9153 0001187  85.9066 274.2062 15.08840700 86942,6917.878,95.438,540.564,538.922,0.0
53402.0,STARLINK-4499,PAYLOAD,2024-02-29 16:34:02,15.08844365,0.0001148,53.2165,201.6177,82.5032,277.6091,0.00010173,1.332e-05,0.0,0 STARLINK-4499,1 53402U 22097Q   24060.69030491  .00001332  00000-0  10173-3 0  9992,2 53402  53.2165 201.6177 0001148  82.5032 277.6091 15.08844365 86466,6917.867,95.437,540.526,538.938,0.0
53402.0,STARLINK-4499,PAYLOAD,2024-03-01 14:49:26,15.08838289,0.0001297,53.2179,197.4568,94.0269,266.0871,5.5009e-05,5.88e-06,0.0,0 STARLINK-4499,1 53402U 22097Q   24061.61767210  .00000588  00000-0  55009-4 0  9991,2 53402  53.2179 197.4568 0001297  94.0269 266.0871 15.08838289 87098,6917.886,95.438,540.648,538.853,0.0
53402.0,STARLINK-4499,PAYLOAD,2024-03-01 16:24:48,15.08857279,0.0001171,53.217,197.1583,97.9509,262.1616,0.00016828,2.393e-05,0.0,0 STARLINK-4499,1 53402U 22097Q   24061.68389559  .00002393  00000-0  16828-3 0  9995,2 53402  53.2170 197.1583 0001171  97.9509 262.1616 15.08857279 86614,6917.828,95.436,540.503,538.882,0.0
53402.0,STARLINK-4499,PAYLOAD,2024-03-02 14:40:13,15.08842905,0.000126,53.2179,192.9964,102.8396,257.2737,2.2443e-05,6.9e-07,0.0,0 STARLINK-4499,1 53402U 22097Q   24062.61126651  .00000069  00000-0  22443-4 0  9990,2 53402  53.2179 192.9964 0001260 102.8396 257.2737 15.08842905 87247,6917.872,95.437,540.608,538.865,0.0
53402.0,STARLINK-4499,PAYLOAD,2024-03-02 16:15:36,15.08843655,0.0001249,53.2176,192.6987,99.082,261.0313,2.547e-05,1.18e-06,0.0,0 STARLINK-4499,1 53402U 22097Q   24062.67750588  .00000118  00000-0  25470-4 0  9996,2 53402  53.2176 192.6987 0001249  99.0820 261.0313 15.08843655 86764,6917.869,95.437,540.598,538.87,0.0
53402.0,STARLINK-4499,PAYLOAD,2024-03-03 01:47:55,15.08838794,0.0001348,53.2177,190.9133,82.9496,277.1649,-4.5454e-06,-3.6e-06,0.0,0 STARLINK-4499,1 53402U 22097Q   24063.07495017 -.00000360  00000-0 -45454-5 0  9990,2 53402  53.2177 190.9133 0001348  82.9496 277.1649 15.08838794 86824,6917.884,95.438,540.682,538.817,0.0
53402.0,STARLINK-4499,PAYLOAD,2024-03-03 14:31:00,15.08841238,0.0001322,53.2168,188.5324,90.461,269.6534,-3.6519e-05,-8.69e-06,0.0,0 STARLINK-4499,1 53402U 22097Q   24063.60487063 -.00000869  00000-0 -36519-4 0  9996,2 53402  53.2168 188.5324 0001322  90.4610 269.6534 15.08841238 87392,6917.877,95.437,540.656,538.827,0.0
53402.0,STARLINK-4499,PAYLOAD,2024-03-04 12:46:23,15.08845136,0.0001223,53.2163,184.3669,98.1594,261.9537,0.00015764,2.222e-05,0.0,0 STARLINK-4499,1 53402U 22097Q   24064.53221685  .00002222  00000-0  15764-3 0  9996,2 53402  53.2163 184.3669 0001223  98.1594 261.9537 15.08845136 87040,6917.865,95.437,540.576,538.884,0.0
53402.0,STARLINK-4499,PAYLOAD,2024-03-04 14:21:46,15.08857423,0.0001248,53.2173,184.0721,82.1811,277.9323,0.00020117,2.917e-05,0.0,0 STARLINK-4499,1 53402U 22097Q   24064.59844986  .00002917  00000-0  20117-3 0  9996,2 53402  53.2173 184.0721 0001248  82.1811 277.9323 15.08857423 87546,6917.827,95.436,540.555,538.829,0.0
53402.0,STARLINK-4499,PAYLOAD,2024-03-05 14:12:35,15.08828842,0.0001273,53.2177,179.6107,84.2389,275.8748,-0.00010515,-1.96e-05,0.0,0 STARLINK-4499,1 53402U 22097Q   24065.59208069 -.00001960  00000-0 -10515-3 0  9993,2 53402  53.2177 179.6107 0001273  84.2389 275.8748 15.08828842 87696,6917.914,95.438,540.66,538.899,0.0
53402.0,STARLINK-4499,PAYLOAD,2024-03-06 10:52:35,15.08848191,0.0001424,53.2185,175.748,97.702,262.4134,-7.0006e-05,-1.402e-05,0.0,0 STARLINK-4499,1 53402U 22097Q   24066.45319023 -.00001402  00000-0 -70006-4 0  9995,2 53402  53.2185 175.7480 0001424  97.7020 262.4134 15.08848191 87336,6917.855,95.437,540.705,538.735,0.0
53402.0,STARLINK-4499,PAYLOAD,2024-03-06 12:27:58,15.08849313,0.0001428,53.2189,175.4508,97.5823,262.5331,-5.7324e-05,-1.2e-05,0.0,0 STARLINK-4499,1 53402U 22097Q   24066.51942909 -.00001200  00000-0 -57324-4 0  9991,2 53402  53.2189 175.4508 0001428  97.5823 262.5331 15.08849313 87833,6917.852,95.437,540.705,538.729,0.0
53402.0,STARLINK-4499,PAYLOAD,2024-03-07 13:54:09,15.08831055,0.0001447,53.2173,170.6908,91.9293,268.1865,0.00017214,2.452e-05,0.0,0 STARLINK-4499,1 53402U 22097Q   24067.57927774  .00002452  00000-0  17214-3 0  9992,2 53402  53.2173 170.6908 0001447  91.9293 268.1865 15.08831055 87992,6917.908,95.438,540.774,538.772,0.0
53402.0,STARLINK-4499,PAYLOAD,2024-03-08 13:44:57,15.08789523,0.000193,53.2179,166.2328,100.5167,259.6043,0.00068303,0.00010584,0.0,0 STARLINK-4499,1 53402U 22097Q   24068.57289048  .00010584  00000-0  68303-3 0  9998,2 53402  53.2179 166.2328 0001930 100.5167 259.6043 15.08789523 87657,6918.035,95.441,541.235,538.565,0.0
53402.0,STARLINK-4499,PAYLOAD,2024-03-08 15:20:20,15.08803891,0.0001855,53.218,165.9348,98.6194,261.5008,0.00054251,8.348e-05,0.0,0 STARLINK-4499,1 53402U 22097Q   24068.63912729  .00008348  00000-0  54251-3 0  9996,2 53402  53.2180 165.9348 0001855  98.6194 261.5008 15.08803891 87669,6917.991,95.44,541.139,538.572,0.0
53402.0,STARLINK-4499,PAYLOAD,2024-03-08 23:17:15,15.08838781,0.0001522,53.2171,164.4465,82.7023,277.4142,3.4352e-05,2.59e-06,0.0,0 STARLINK-4499,1 53402U 22097Q   24068.97032153  .00000259  00000-0  34352-4 0  9991,2 53402  53.2171 164.4465 0001522  82.7023 277.4142 15.08838781 87716,6917.884,95.438,540.802,538.696,0.0
53402.0,STARLINK-4499,PAYLOAD,2024-03-09 12:00:21,15.08834726,0.0001845,53.2178,162.0691,87.2039,272.9164,3.7976e-05,3.16e-06,0.0,0 STARLINK-4499,1 53402U 22097Q   24069.50024616  .00000316  00000-0  37976-4 0  9995,2 53402  53.2178 162.0691 0001845  87.2039 272.9164 15.08834726 88285,6917.897,95.438,541.038,538.485,0.0
53402.0,STARLINK-4499,PAYLOAD,2024-03-09 15:11:07,15.08835637,0.0001746,53.2173,161.4734,89.8923,270.2269,3.1e-05,2.05e-06,0.0,0 STARLINK-4499,1 53402U 22097Q   24069.63272521  .00000205  00000-0  31000-4 0  9998,2 53402  53.2173 161.4734 0001746  89.8923 270.2269 15.08835637 88303,6917.894,95.438,540.967,538.551,0.0
53402.0,STARLINK-4499,PAYLOAD,2024-03-10 11:51:08,15.0883925,0.000133,53.215,157.6053,82.1932,277.9211,3.7764e-07,-2.82e-06,0.0,0 STARLINK-4499,1 53402U 22097Q   24070.49384575 -.00000282  00000-0  37764-6 0  9998,2 53402  53.2150 157.6053 0001330  82.1932 277.9211 15.08839250 87949,6917.883,95.438,540.668,538.828,0.0
53402.0,STARLINK-4499,PAYLOAD,2024-03-10 15:01:54,15.08845111,0.0001465,53.2162,157.0113,83.9811,276.1348,4.8989e-05,4.92e-06,0.0,0 STARLINK-4499,1 53402U 22097Q   24070.62632053  .00000492  00000-0  48989-4 0  9991,2 53402  53.2162 157.0113 0001465  83.9811 276.1348 15.08845111 87964,6917.865,95.437,540.743,538.716,0.0
